{
  "type": "FeatureCollection",
  "properties": {
    "start": "n0457",
    "goal": "n0103"
  },
  "features": [
    {
      "type": "Feature",
      "properties": {
        "slot": "07:30",
        "time_s": 568.9,
        "distance_m": 2685.2
      },
      "geometry": {
        "type": "LineString",
        "coordinates": [
          [
            106.6827702,
            10.7772057
          ],
          [
            106.6831766,
            10.7776034
          ],
          [
            106.6833882,
            10.7778105
          ],
          [
            106.6839633,
            10.7783866
          ],
          [
            106.6842145,
            10.778619
          ],
          [
            106.6851578,
            10.779542
          ],
          [
            106.6863121,
            10.7806715
          ],
          [
            106.6876492,
            10.7819798
          ],
          [
            106.6888468,
            10.7831517
          ],
          [
            106.6898816,
            10.7841642
          ],
          [
            106.690783,
            10.7834531
          ],
          [
            106.6916574,
            10.78436
          ],
          [
            106.6927888,
            10.7855325
          ],
          [
            106.6933006,
            10.7860641
          ],
          [
            106.6936817,
            10.7864593
          ],
          [
            106.6937362,
            10.7865155
          ],
          [
            106.6939602,
            10.7867446
          ],
          [
            106.6947379,
            10.7875402
          ],
          [
            106.6955568,
            10.7883778
          ],
          [
            106.6959541,
            10.7887842
          ],
          [
            106.6966359,
            10.7894816
          ],
          [
            106.6970284,
            10.7898831
          ],
          [
            106.6975106,
            10.7903735
          ],
          [
            106.6976612,
            10.7905339
          ],
          [
            106.6981229,
            10.791006
          ],
          [
            106.6986819,
            10.7915737
          ],
          [
            106.6996908,
            10.7922117
          ],
          [
            106.700172,
            10.7917269
          ]
        ]
      }
    },
    {
      "type": "Feature",
      "properties": {
        "slot": "22:00",
        "time_s": 357.7,
        "distance_m": 2656.1
      },
      "geometry": {
        "type": "LineString",
        "coordinates": [
          [
            106.6827702,
            10.7772057
          ],
          [
            106.6831854,
            10.7769816
          ],
          [
            106.6836573,
            10.7766932
          ],
          [
            106.6837066,
            10.7767389
          ],
          [
            106.6838744,
            10.7768944
          ],
          [
            106.6841936,
            10.7771974
          ],
          [
            106.6848872,
            10.7778559
          ],
          [
            106.6860728,
            10.7789815
          ],
          [
            106.6866254,
            10.7795061
          ],
          [
            106.6872062,
            10.7800575
          ],
          [
            106.6884593,
            10.7812471
          ],
          [
            106.6896689,
            10.7823954
          ],
          [
            106.6900349,
            10.7827429
          ],
          [
            106.690783,
            10.7834531
          ],
          [
            106.6916574,
            10.78436
          ],
          [
            106.6927888,
            10.7855325
          ],
          [
            106.6933006,
            10.7860641
          ],
          [
            106.6936817,
            10.7864593
          ],
          [
            106.6937362,
            10.7865155
          ],
          [
            106.6939602,
            10.7867446
          ],
          [
            106.6947379,
            10.7875402
          ],
          [
            106.6955568,
            10.7883778
          ],
          [
            106.6959541,
            10.7887842
          ],
          [
            106.6966359,
            10.7894816
          ],
          [
            106.6970284,
            10.7898831
          ],
          [
            106.6975106,
            10.7903735
          ],
          [
            106.6976612,
            10.7905339
          ],
          [
            106.6981229,
            10.791006
          ],
          [
            106.6986819,
            10.7915737
          ],
          [
            106.6996908,
            10.7922117
          ],
          [
            106.700172,
            10.7917269
          ]
        ]
      }
    }
  ]
}