{
  "type": "FeatureCollection",
  "properties": {
    "start": "n0915",
    "goal": "n0572"
  },
  "features": [
    {
      "type": "Feature",
      "properties": {
        "slot": "07:30",
        "time_s": 678.7,
        "distance_m": 4770.8
      },
      "geometry": {
        "type": "LineString",
        "coordinates": [
          [
            106.7073151,
            10.7647776
          ],
          [
            106.7071857,
            10.7645021
          ],
          [
            106.7069173,
            10.7639734
          ],
          [
            106.7061642,
            10.7646491
          ],
          [
            106.7071843,
            10.7650787
          ],
          [
            106.7072409,
            10.7651018
          ],
          [
            106.707192,
            10.765222
          ],
          [
            106.706501,
            10.7667912
          ],
          [
            106.7063343,
            10.7671089
          ],
          [
            106.706054,
            10.7675623
          ],
          [
            106.7063184,
            10.7707757
          ],
          [
            106.7066578,
            10.7749437
          ],
          [
            106.7067032,
            10.7755731
          ],
          [
            106.7073025,
            10.7781934
          ],
          [
            106.7077438,
            10.7811845
          ],
          [
            106.7074111,
            10.7814915
          ],
          [
            106.7071493,
            10.781733
          ],
          [
            106.7064213,
            10.7823493
          ],
          [
            106.7061973,
            10.7825132
          ],
          [
            106.7060567,
            10.7826396
          ],
          [
            106.7051249,
            10.7835028
          ],
          [
            106.7048865,
            10.7836176
          ],
          [
            106.7039333,
            10.7845033
          ],
          [
            106.7036877,
            10.7847301
          ],
          [
            106.703163,
            10.7852326
          ],
          [
            106.7030967,
            10.7852943
          ],
          [
            106.7028245,
            10.7854521
          ],
          [
            106.701946,
            10.7862715
          ],
          [
            106.7016177,
            10.7865968
          ],
          [
            106.6995877,
            10.7884681
          ],
          [
            106.6985385,
            10.7894352
          ],
          [
            106.6979911,
            10.7899274
          ],
          [
            106.6975106,
            10.7903735
          ],
          [
            106.697425,
            10.7904522
          ],
          [
            106.697112,
            10.7907304
          ],
          [
            106.6968713,
            10.7909428
          ],
          [
            106.6966416,
            10.7911563
          ],
          [
            106.6962001,
            10.7915964
          ],
          [
            106.6959446,
            10.7918334
          ],
          [
            106.6959923,
            10.7926949
          ],
          [
            106.6961704,
            10.7954679
          ],
          [
            106.6961876,
            10.7956827
          ],
          [
            106.6960729,
            10.7956935
          ],
          [
            106.6941442,
            10.7958639
          ],
          [
            106.6937097,
            10.7958981
          ],
          [
            106.6930295,
            10.7959377
          ],
          [
            106.6927751,
            10.7959501
          ]
        ]
      }
    },
    {
      "type": "Feature",
      "properties": {
        "slot": "22:00",
        "time_s": 464.6,
        "distance_m": 4781.0
      },
      "geometry": {
        "type": "LineString",
        "coordinates": [
          [
            106.7073151,
            10.7647776
          ],
          [
            106.7073811,
            10.764632
          ],
          [
            106.7071857,
            10.7645021
          ],
          [
            106.7069173,
            10.7639734
          ],
          [
            106.7061642,
            10.7646491
          ],
          [
            106.7071843,
            10.7650787
          ],
          [
            106.7072409,
            10.7651018
          ],
          [
            106.707192,
            10.765222
          ],
          [
            106.706501,
            10.7667912
          ],
          [
            106.7063343,
            10.7671089
          ],
          [
            106.706054,
            10.7675623
          ],
          [
            106.7063184,
            10.7707757
          ],
          [
            106.7066578,
            10.7749437
          ],
          [
            106.7067032,
            10.7755731
          ],
          [
            106.7073025,
            10.7781934
          ],
          [
            106.7077438,
            10.7811845
          ],
          [
            106.7074111,
            10.7814915
          ],
          [
            106.7071493,
            10.781733
          ],
          [
            106.7064213,
            10.7823493
          ],
          [
            106.7061973,
            10.7825132
          ],
          [
            106.7060567,
            10.7826396
          ],
          [
            106.7051249,
            10.7835028
          ],
          [
            106.7048865,
            10.7836176
          ],
          [
            106.7039333,
            10.7845033
          ],
          [
            106.7036877,
            10.7847301
          ],
          [
            106.703163,
            10.7852326
          ],
          [
            106.7030967,
            10.7852943
          ],
          [
            106.7028245,
            10.7854521
          ],
          [
            106.701946,
            10.7862715
          ],
          [
            106.7016177,
            10.7865968
          ],
          [
            106.6995877,
            10.7884681
          ],
          [
            106.6985385,
            10.7894352
          ],
          [
            106.6979911,
            10.7899274
          ],
          [
            106.6975106,
            10.7903735
          ],
          [
            106.697425,
            10.7904522
          ],
          [
            106.697112,
            10.7907304
          ],
          [
            106.6968713,
            10.7909428
          ],
          [
            106.6966416,
            10.7911563
          ],
          [
            106.6962001,
            10.7915964
          ],
          [
            106.6959446,
            10.7918334
          ],
          [
            106.6959923,
            10.7926949
          ],
          [
            106.6961704,
            10.7954679
          ],
          [
            106.6961876,
            10.7956827
          ],
          [
            106.6960729,
            10.7956935
          ],
          [
            106.6941442,
            10.7958639
          ],
          [
            106.6937097,
            10.7958981
          ],
          [
            106.6930295,
            10.7959377
          ],
          [
            106.6927751,
            10.7959501
          ]
        ]
      }
    }
  ]
}