{
  "type": "FeatureCollection",
  "properties": {
    "start": "n1127",
    "goal": "n1004"
  },
  "features": [
    {
      "type": "Feature",
      "properties": {
        "slot": "07:30",
        "time_s": 885.4,
        "distance_m": 4346.8
      },
      "geometry": {
        "type": "LineString",
        "coordinates": [
          [
            106.6931266,
            10.7712328
          ],
          [
            106.6933707,
            10.7712084
          ],
          [
            106.6934483,
            10.7712883
          ],
          [
            106.6934554,
            10.771322
          ],
          [
            106.6934406,
            10.7713831
          ],
          [
            106.6934115,
            10.7714195
          ],
          [
            106.6933211,
            10.7714672
          ],
          [
            106.6930831,
            10.7716644
          ],
          [
            106.6923274,
            10.7720824
          ],
          [
            106.6911548,
            10.7727238
          ],
          [
            106.6898481,
            10.7734387
          ],
          [
            106.6897713,
            10.7739193
          ],
          [
            106.6906105,
            10.7747898
          ],
          [
            106.691529,
            10.775847
          ],
          [
            106.6916588,
            10.7759826
          ],
          [
            106.6911352,
            10.776467
          ],
          [
            106.6906189,
            10.7769384
          ],
          [
            106.6900761,
            10.7774342
          ],
          [
            106.6895565,
            10.7779086
          ],
          [
            106.6891758,
            10.7782562
          ],
          [
            106.6883468,
            10.7790111
          ],
          [
            106.6872062,
            10.7800575
          ],
          [
            106.6863121,
            10.7806715
          ],
          [
            106.6854156,
            10.7812847
          ],
          [
            106.683615,
            10.782517
          ],
          [
            106.683948,
            10.7832224
          ],
          [
            106.6845028,
            10.7843975
          ],
          [
            106.6846106,
            10.786164
          ],
          [
            106.6851269,
            10.7882722
          ],
          [
            106.6852127,
            10.7884963
          ],
          [
            106.6852701,
            10.7886239
          ],
          [
            106.6863677,
            10.7902169
          ],
          [
            106.6874992,
            10.791433
          ],
          [
            106.6871727,
            10.7916957
          ],
          [
            106.6866917,
            10.7920776
          ],
          [
            106.6866872,
            10.7920861
          ],
          [
            106.6852839,
            10.7931859
          ],
          [
            106.6846195,
            10.7937096
          ],
          [
            106.6844481,
            10.7938447
          ],
          [
            106.6839405,
            10.7942511
          ],
          [
            106.6836565,
            10.7944714
          ],
          [
            106.6826423,
            10.7952664
          ],
          [
            106.6822033,
            10.7956227
          ],
          [
            106.681903,
            10.7958597
          ],
          [
            106.6814724,
            10.796473
          ],
          [
            106.6811655,
            10.7971945
          ],
          [
            106.680278,
            10.7991874
          ],
          [
            106.6802368,
            10.7992813
          ]
        ]
      }
    },
    {
      "type": "Feature",
      "properties": {
        "slot": "22:00",
        "time_s": 561.7,
        "distance_m": 4381.7
      },
      "geometry": {
        "type": "LineString",
        "coordinates": [
          [
            106.6931266,
            10.7712328
          ],
          [
            106.6933707,
            10.7712084
          ],
          [
            106.6934483,
            10.7712883
          ],
          [
            106.6934554,
            10.771322
          ],
          [
            106.6934406,
            10.7713831
          ],
          [
            106.6934115,
            10.7714195
          ],
          [
            106.6933211,
            10.7714672
          ],
          [
            106.6930831,
            10.7716644
          ],
          [
            106.6923274,
            10.7720824
          ],
          [
            106.6911548,
            10.7727238
          ],
          [
            106.6898481,
            10.7734387
          ],
          [
            106.6897713,
            10.7739193
          ],
          [
            106.6906105,
            10.7747898
          ],
          [
            106.691529,
            10.775847
          ],
          [
            106.6916588,
            10.7759826
          ],
          [
            106.6911352,
            10.776467
          ],
          [
            106.6906189,
            10.7769384
          ],
          [
            106.6900761,
            10.7774342
          ],
          [
            106.6895565,
            10.7779086
          ],
          [
            106.6891758,
            10.7782562
          ],
          [
            106.6883468,
            10.7790111
          ],
          [
            106.688964,
            10.7796331
          ],
          [
            106.6895501,
            10.7802238
          ],
          [
            106.6890494,
            10.7807024
          ],
          [
            106.6884593,
            10.7812471
          ],
          [
            106.6876492,
            10.7819798
          ],
          [
            106.6868417,
            10.7827237
          ],
          [
            106.6866413,
            10.7828965
          ],
          [
            106.6866217,
            10.7829132
          ],
          [
            106.6863082,
            10.7831971
          ],
          [
            106.685973,
            10.7834895
          ],
          [
            106.6845028,
            10.7843975
          ],
          [
            106.6846106,
            10.786164
          ],
          [
            106.6851269,
            10.7882722
          ],
          [
            106.6852127,
            10.7884963
          ],
          [
            106.6852701,
            10.7886239
          ],
          [
            106.6863677,
            10.7902169
          ],
          [
            106.6874992,
            10.791433
          ],
          [
            106.6871727,
            10.7916957
          ],
          [
            106.6866917,
            10.7920776
          ],
          [
            106.6866872,
            10.7920861
          ],
          [
            106.6852839,
            10.7931859
          ],
          [
            106.6846195,
            10.7937096
          ],
          [
            106.6844481,
            10.7938447
          ],
          [
            106.6839405,
            10.7942511
          ],
          [
            106.6836565,
            10.7944714
          ],
          [
            106.6826423,
            10.7952664
          ],
          [
            106.6822033,
            10.7956227
          ],
          [
            106.681903,
            10.7958597
          ],
          [
            106.6814724,
            10.796473
          ],
          [
            106.6811655,
            10.7971945
          ],
          [
            106.680278,
            10.7991874
          ],
          [
            106.6802368,
            10.7992813
          ]
        ]
      }
    }
  ]
}