{
  "type": "FeatureCollection",
  "features": [
    {
      "type": "Feature",
      "properties": {
        "from": "Chợ Tân Định",
        "to": "Bitexco Financial Tower",
        "time_s": 1001.2,
        "distance_m": 4306.8
      },
      "geometry": {
        "type": "LineString",
        "coordinates": [
          [
            106.6911219,
            10.7885505
          ],
          [
            106.6943467,
            10.7860406
          ],
          [
            106.695672,
            10.7823428
          ],
          [
            106.697816,
            10.7809287
          ],
          [
            106.6988256,
            10.7796124
          ],
          [
            106.7001527,
            10.7791894
          ],
          [
            106.7009788,
            10.7762943
          ],
          [
            106.7029698,
            10.7761671
          ],
          [
            106.7059388,
            10.7749157
          ],
          [
            106.7062713,
            10.7714318
          ],
          [
            106.7039118,
            10.7718636
          ]
        ]
      }
    }
  ]
}