{
  "type": "FeatureCollection",
  "features": [
    {
      "type": "Feature",
      "properties": {
        "from": "BV Từ Dũ",
        "to": "BV Nhi Đồng 2",
        "time_s": 1184.6,
        "distance_m": 5667.5
      },
      "geometry": {
        "type": "LineString",
        "coordinates": [
          [
            106.6871325,
            10.7691351
          ],
          [
            106.6939962,
            10.7674234
          ],
          [
            106.6946504,
            10.769207
          ],
          [
            106.696162,
            10.7698062
          ],
          [
            106.6993107,
            10.7704406
          ],
          [
            106.7009907,
            10.7704049
          ],
          [
            106.7039118,
            10.7718636
          ],
          [
            106.7059388,
            10.7749157
          ],
          [
            106.7009788,
            10.7762943
          ],
          [
            106.702175,
            10.7791968
          ]
        ]
      }
    }
  ]
}