{
  "type": "FeatureCollection",
  "features": [
    {
      "type": "Feature",
      "properties": {
        "from": "Bưu điện Thành phố",
        "to": "Chợ Bến Thành",
        "time_s": 341.3,
        "distance_m": 1174.7
      },
      "geometry": {
        "type": "LineString",
        "coordinates": [
          [
            106.7001527,
            10.7791894
          ],
          [
            106.6990461,
            10.7758208
          ],
          [
            106.6975561,
            10.7721929
          ]
        ]
      }
    }
  ]
}