{
  "type": "FeatureCollection",
  "features": [
    {
      "type": "Feature",
      "properties": {
        "from": "Cầu Kiệu",
        "to": "Bảo tàng Hồ Chí Minh (Bến Nhà Rồng)",
        "time_s": 1204.8,
        "distance_m": 6707.2
      },
      "geometry": {
        "type": "LineString",
        "coordinates": [
          [
            106.6817525,
            10.7928774
          ],
          [
            106.6834638,
            10.7833574
          ],
          [
            106.6865528,
            10.778537
          ],
          [
            106.6861495,
            10.7767966
          ],
          [
            106.6946504,
            10.769207
          ],
          [
            106.6989721,
            10.764404
          ],
          [
            106.7053811,
            10.7682059
          ],
          [
            106.705993,
            10.7680655
          ]
        ]
      }
    }
  ]
}