{
  "type": "FeatureCollection",
  "features": [
    {
      "type": "Feature",
      "properties": {
        "from": "ĐH Khoa học Tự nhiên (Nguyễn Văn Cừ)",
        "to": "Thảo Cầm Viên",
        "time_s": 1425.6,
        "distance_m": 6988.2
      },
      "geometry": {
        "type": "LineString",
        "coordinates": [
          [
            106.6825233,
            10.7628393
          ],
          [
            106.6871325,
            10.7691351
          ],
          [
            106.6939962,
            10.7674234
          ],
          [
            106.6946504,
            10.769207
          ],
          [
            106.696162,
            10.7698062
          ],
          [
            106.6993107,
            10.7704406
          ],
          [
            106.7009907,
            10.7704049
          ],
          [
            106.7039118,
            10.7718636
          ],
          [
            106.7059388,
            10.7749157
          ],
          [
            106.7077438,
            10.7811845
          ],
          [
            106.7048614,
            10.787102
          ],
          [
            106.7050041,
            10.7872537
          ]
        ]
      }
    }
  ]
}